[{"OBJECT_NAME":"KOSEN-1","OBJECT_ID":"2021-102H","EPOCH":"2026-03-09T22:29:54.100608","MEAN_MOTION":15.25323573,"ECCENTRICITY":0.00138659,"INCLINATION":97.3334,"RA_OF_ASC_NODE":113.0569,"ARG_OF_PERICENTER":191.9191,"MEAN_ANOMALY":168.1721,"EPHEMERIS_TYPE":0,"CLASSIFICATION_TYPE":"U","NORAD_CAT_ID":49402,"ELEMENT_SET_NO":999,"REV_AT_EPOCH":23888,"BSTAR":0.00040411561,"MEAN_MOTION_DOT":0.00010142,"MEAN_MOTION_DDOT":0},{"OBJECT_NAME":"STARLINK-33673","OBJECT_ID":"2025-053V","EPOCH":"2026-03-09T11:53:48.437664","MEAN_MOTION":15.27557926,"ECCENTRICITY":0.00015406,"INCLINATION":42.9997,"RA_OF_ASC_NODE":235.0792,"ARG_OF_PERICENTER":279.426,"MEAN_ANOMALY":80.6418,"EPHEMERIS_TYPE":0,"CLASSIFICATION_TYPE":"U","NORAD_CAT_ID":63284,"ELEMENT_SET_NO":999,"REV_AT_EPOCH":5636,"BSTAR":0.0012387715,"MEAN_MOTION_DOT":0.0003396,"MEAN_MOTION_DDOT":0}]
